      2.10          N: GNSS NAV DATA                        RINEX VERSION / TYPE
fic2rin                                 07/13/2018 00:15:41 PGM / RUN BY / DATE
                                                            END OF HEADER
21 18  7 12 11 59 44.0-3.686393611133e-04 5.456968210638e-12 0.000000000000e+00
    1.500000000000e+01-1.774375000000e+02 4.332680473533e-09 2.657765440861e+00
   -8.974224328995e-06 2.433323918376e-02 1.002848148346e-05 5.153682455063e+03
    3.887840000000e+05 2.700835466385e-07 2.726867820236e+00-6.705522537231e-08
    9.447979089567e-01 1.719062500000e+02-1.544769656577e+00-7.574601226831e-09
   -2.835832409517e-10 1.000000000000e+00 2.009000000000e+03 0.000000000000e+00
    2.400000000000e+00 0.000000000000e+00-1.024454832077e-08 1.500000000000e+01
    3.816060000000e+05 4.000000000000e+00
 1 18  7 12 12  0  0.0-6.501236930490e-05-3.865352482535e-12 0.000000000000e+00
    1.700000000000e+01-1.542812500000e+02 3.785157667010e-09-1.832296769235e+00
   -7.936730980873e-06 8.004473522305e-03 9.961426258087e-06 5.153675443649e+03
    3.888000000000e+05 2.793967723846e-08 2.782358961105e+00-1.695007085800e-07
    9.721802214713e-01 1.939687500000e+02 6.580755694775e-01-7.578529961907e-09
   -1.032185851827e-10 1.000000000000e+00 2.009000000000e+03 0.000000000000e+00
    2.400000000000e+00 0.000000000000e+00 5.587935447693e-09 1.700000000000e+01
    3.816060000000e+05 4.000000000000e+00
 2 18  7 12 12  0  0.0 6.000138819218e-05-1.068656274583e-11 0.000000000000e+00
    5.100000000000e+01-1.332187500000e+02 4.485186826034e-09-1.507532741670e+00
   -6.893649697304e-06 1.792239560746e-02 9.965151548386e-06 5.153776159286e+03
    3.888000000000e+05 3.241002559662e-07 2.720302264377e+00 4.116445779800e-07
    9.512140335854e-01 1.801875000000e+02-1.845970073503e+00-7.966046103509e-09
   -2.614394614315e-10 1.000000000000e+00 2.009000000000e+03 0.000000000000e+00
    2.400000000000e+00 0.000000000000e+00-2.048909664154e-08 5.100000000000e+01
    3.816060000000e+05 4.000000000000e+00
 3 18  7 12 12  0  0.0 1.044259406626e-04 6.139089236967e-12 0.000000000000e+00
    4.300000000000e+01 3.437500000000e+00 4.340895101419e-09-2.750375301634e+00
    2.607703208923e-07 1.540217082947e-03 1.008994877338e-05 5.153719192505e+03
    3.888000000000e+05 3.539025783539e-08-2.458549433458e+00 3.166496753693e-08
    9.613334695006e-01 1.855625000000e+02 4.839021316890e-01-7.757108829005e-09
    7.839612265604e-10 1.000000000000e+00 2.009000000000e+03 0.000000000000e+00
    2.400000000000e+00 0.000000000000e+00 2.328306436539e-09 4.300000000000e+01
    3.816060000000e+05 4.000000000000e+00
 6 18  7 12 12  0  0.0 3.878953866661e-04-3.637978807092e-12 0.000000000000e+00
    4.400000000000e+01-1.338125000000e+02 3.879447308838e-09-1.674908541887e+00
   -7.061287760735e-06 1.065055024810e-03 9.819865226746e-06 5.153671037674e+03
    3.888000000000e+05 2.980232238770e-08 2.774036159752e+00 5.774199962616e-08
    9.718819354008e-01 1.980625000000e+02-1.037247707473e+00-7.780681239462e-09
   -1.532206679701e-10 1.000000000000e+00 2.009000000000e+03 0.000000000000e+00
    2.400000000000e+00 0.000000000000e+00 4.656612873077e-09 4.400000000000e+01
    3.816060000000e+05 4.000000000000e+00
 5 18  7 12 12  0  0.0-4.721339792013e-06 5.684341886081e-13 0.000000000000e+00
    1.030000000000e+02 2.253125000000e+01 4.723053877009e-09 1.164663379556e+00
    1.300126314163e-06 5.482429871336e-03 1.000612974167e-05 5.153740055084e+03
    3.888000000000e+05-1.322478055954e-07-2.481008814513e+00 3.725290298462e-09
    9.482413767338e-01 1.820000000000e+02 6.292813274303e-01-8.050692486514e-09
    6.560987577182e-10 1.000000000000e+00 2.009000000000e+03 0.000000000000e+00
    2.400000000000e+00 0.000000000000e+00-1.117587089539e-08 1.030000000000e+02
    3.816060000000e+05 4.000000000000e+00
13 18  7 12 12  0  0.0-9.252224117517e-05 4.547473508865e-13 0.000000000000e+00
    1.500000000000e+01-2.303125000000e+01 4.812700468292e-09-9.558715595215e-01
   -1.134350895882e-06 3.289787215181e-03 5.671754479408e-06 5.153653554916e+03
    3.888000000000e+05-8.754432201385e-08-1.292261559447e+00 1.490116119385e-08
    9.678822164307e-01 2.763125000000e+02 1.536107407028e+00-8.156411175836e-09
   -3.107272287506e-10 1.000000000000e+00 2.009000000000e+03 0.000000000000e+00
    2.400000000000e+00 0.000000000000e+00-1.117587089539e-08 1.500000000000e+01
    3.816060000000e+05 4.000000000000e+00
15 18  7 12 12  0  0.0-3.509125672281e-04 7.958078640513e-13 0.000000000000e+00
    1.000000000000e+01-1.312500000000e+01 5.846672108790e-09-5.331746155371e-01
   -4.321336746216e-07 1.035644905642e-02 4.388391971588e-06 5.153760473251e+03
    3.888000000000e+05 5.774199962616e-08-1.496644551082e+00 1.601874828339e-07
    9.276816152858e-01 2.752187500000e+02 6.855871234899e-01-8.800009412857e-09
   -7.464596644698e-11 1.000000000000e+00 2.009000000000e+03 0.000000000000e+00
    2.400000000000e+00 0.000000000000e+00-1.117587089539e-08 1.000000000000e+01
    3.816060000000e+05 4.000000000000e+00
 9 18  7 12 12  0  0.0 5.138334818184e-04-5.684341886081e-13 0.000000000000e+00
    1.600000000000e+01-1.078125000000e+01 5.222003231681e-09 5.788089376927e-01
   -6.239861249924e-07 8.832158055156e-04 4.455447196960e-06 5.153573293686e+03
    3.888000000000e+05-2.048909664154e-08-1.424716754634e+00 2.607703208923e-08
    9.521476927732e-01 2.852187500000e+02 1.847702017828e+00-8.384277810253e-09
   -5.678807973718e-11 1.000000000000e+00 2.009000000000e+03 0.000000000000e+00
    2.400000000000e+00 0.000000000000e+00 9.313225746155e-10 1.600000000000e+01
    3.816060000000e+05 4.000000000000e+00
26 18  7 12 12  0  0.0-8.631590753794e-05 1.216449163621e-11 0.000000000000e+00
    1.400000000000e+01 1.796250000000e+02 4.748054918403e-09 2.209143993932e+00
    9.328126907349e-06 2.778274822049e-03 6.427988409996e-06 5.153691608429e+03
    3.888000000000e+05-7.636845111847e-08 6.627807470442e-01 6.891787052155e-08
    9.555057188199e-01 2.527812500000e+02 1.113318518642e-01-8.277487647728e-09
    3.450143712334e-10 1.000000000000e+00 2.009000000000e+03 0.000000000000e+00
    2.400000000000e+00 0.000000000000e+00 7.450580596924e-09 1.400000000000e+01
    3.816060000000e+05 4.000000000000e+00
27 18  7 12 12  0  0.0 3.614197485149e-04-2.160049916711e-12 0.000000000000e+00
    1.600000000000e+01-4.284375000000e+01 4.625192657839e-09 3.452367585539e-01
   -2.196058630943e-06 6.002867594361e-03-8.586794137955e-07 5.153686487198e+03
    3.888000000000e+05 9.313225746155e-09 1.725894218376e+00 8.940696716309e-08
    9.773639444113e-01 3.999687500000e+02 4.503819313238e-01-8.633573908722e-09
   -2.975123925853e-10 1.000000000000e+00 2.009000000000e+03 0.000000000000e+00
    2.400000000000e+00 0.000000000000e+00 1.396983861923e-09 1.600000000000e+01
    3.816060000000e+05 4.000000000000e+00
14 18  7 12 12  0  0.0-9.761191904545e-05 0.000000000000e+00 0.000000000000e+00
    8.200000000000e+01-1.443750000000e+01 5.050924677001e-09 2.673663606535e-02
   -8.493661880493e-07 1.005307142623e-02 5.584210157394e-06 5.153589933395e+03
    3.888000000000e+05-1.322478055954e-07-1.334488656158e+00 1.415610313416e-07
    9.604211279550e-01 2.749062500000e+02-1.946910203825e+00-8.316417840756e-09
   -2.285809498855e-10 1.000000000000e+00 2.009000000000e+03 0.000000000000e+00
    2.400000000000e+00 0.000000000000e+00-9.778887033463e-09 8.200000000000e+01
    3.816060000000e+05 4.000000000000e+00
 8 18  7 12 12  0  0.0-1.079007051885e-04-1.250555214938e-12 0.000000000000e+00
    7.100000000000e+01-3.850000000000e+01 4.735911555440e-09 6.694878270610e-01
   -2.197921276093e-06 3.453975776210e-03-1.097097992897e-06 5.153593420029e+03
    3.888000000000e+05 1.490116119385e-08 1.717066868281e+00 4.656612873077e-08
    9.691621439391e-01 4.019687500000e+02-4.046357822474e-01-8.633931066456e-09
   -2.900120801672e-10 1.000000000000e+00 2.009000000000e+03 0.000000000000e+00
    2.400000000000e+00 0.000000000000e+00 5.122274160385e-09 7.100000000000e+01
    3.816060000000e+05 4.000000000000e+00
11 18  7 12 12  0  0.0-7.303957827389e-04 1.705302565824e-12 0.000000000000e+00
    5.000000000000e+01-1.719687500000e+02 5.456655863048e-09-2.494940196548e+00
   -8.635222911835e-06 1.697384961881e-02 3.930181264877e-06 5.153649785995e+03
    3.888000000000e+05 2.514570951462e-07 2.352445130634e+00 1.080334186554e-07
    9.059836509070e-01 2.724375000000e+02 1.779822924700e+00-8.425350949686e-09
   -3.918020344131e-10 1.000000000000e+00 2.009000000000e+03 0.000000000000e+00
    2.400000000000e+00 0.000000000000e+00-1.210719347000e-08 5.000000000000e+01
    3.816060000000e+05 4.000000000000e+00
 7 18  7 12 12  0  0.0 1.602154225111e-04-6.366462912410e-12 0.000000000000e+00
    6.200000000000e+01 2.740625000000e+01 4.373753612965e-09-2.498262623946e+00
    1.145526766777e-06 1.190118375234e-02 1.273863017559e-05 5.153657884598e+03
    3.888000000000e+05 4.842877388000e-08-3.471097852358e-01-1.732259988785e-07
    9.584048713527e-01 1.334687500000e+02-2.516291493229e+00-7.653175928354e-09
   -4.125171829965e-10 1.000000000000e+00 2.009000000000e+03 0.000000000000e+00
    2.400000000000e+00 0.000000000000e+00-1.117587089539e-08 6.200000000000e+01
    3.816060000000e+05 4.000000000000e+00
 4 18  7 12 12  0  0.0 7.824366912246e-05 3.637978807092e-12 0.000000000000e+00
    4.700000000000e+01 1.740312500000e+02 5.568803391585e-09 1.568275865236e+00
    8.957460522652e-06 9.791794931516e-03 6.213784217834e-06 5.153715158463e+03
    3.888000000000e+05-2.384185791016e-07 7.106915321150e-01-3.725290298462e-09
    9.787902354106e-01 2.698750000000e+02 9.344560626801e-01-8.149982336620e-09
    3.428714248282e-10 1.000000000000e+00 2.009000000000e+03 0.000000000000e+00
    3.400000000000e+00 6.300000000000e+01-1.955777406693e-08 4.700000000000e+01
    3.816060000000e+05 4.000000000000e+00
